[{"OBJECT_NAME":"STARLINK-2569","OBJECT_ID":"2021-036B","EPOCH":"2025-12-03T08:08:33.465408","MEAN_MOTION":15.06407727,"ECCENTRICITY":0.00013319,"INCLINATION":53.0568,"RA_OF_ASC_NODE":84.1526,"ARG_OF_PERICENTER":81.2043,"MEAN_ANOMALY":278.9096,"EPHEMERIS_TYPE":0,"CLASSIFICATION_TYPE":"U","NORAD_CAT_ID":48277,"ELEMENT_SET_NO":999,"REV_AT_EPOCH":25477,"BSTAR":7.1371575e-5,"MEAN_MOTION_DOT":7.82e-6,"MEAN_MOTION_DDOT":0},{"OBJECT_NAME":"STARLINK-2543","OBJECT_ID":"2021-036C","EPOCH":"2025-12-03T07:26:46.866624","MEAN_MOTION":15.06404404,"ECCENTRICITY":0.0001279,"INCLINATION":53.0537,"RA_OF_ASC_NODE":99.3658,"ARG_OF_PERICENTER":90.7928,"MEAN_ANOMALY":269.3208,"EPHEMERIS_TYPE":0,"CLASSIFICATION_TYPE":"U","NORAD_CAT_ID":48278,"ELEMENT_SET_NO":999,"REV_AT_EPOCH":25455,"BSTAR":0.00015857535,"MEAN_MOTION_DOT":2.082e-5,"MEAN_MOTION_DDOT":0},{"OBJECT_NAME":"STARLINK-2565","OBJECT_ID":"2021-036E","EPOCH":"2025-12-03T05:31:18.693408","MEAN_MOTION":15.06418651,"ECCENTRICITY":0.00017103,"INCLINATION":53.0527,"RA_OF_ASC_NODE":169.6399,"ARG_OF_PERICENTER":87.3134,"MEAN_ANOMALY":272.805,"EPHEMERIS_TYPE":0,"CLASSIFICATION_TYPE":"U","NORAD_CAT_ID":48280,"ELEMENT_SET_NO":999,"REV_AT_EPOCH":25356,"BSTAR":0.00027342029,"MEAN_MOTION_DOT":3.795e-5,"MEAN_MOTION_DDOT":0},{"OBJECT_NAME":"STARLINK-2558","OBJECT_ID":"2021-036G","EPOCH":"2025-12-03T04:48:12.993696","MEAN_MOTION":15.0640713,"ECCENTRICITY":0.00018934,"INCLINATION":53.054,"RA_OF_ASC_NODE":154.7777,"ARG_OF_PERICENTER":98.9454,"MEAN_ANOMALY":261.1749,"EPHEMERIS_TYPE":0,"CLASSIFICATION_TYPE":"U","NORAD_CAT_ID":48282,"ELEMENT_SET_NO":999,"REV_AT_EPOCH":25377,"BSTAR":6.4648846e-5,"MEAN_MOTION_DOT":6.82e-6,"MEAN_MOTION_DDOT":0},{"OBJECT_NAME":"STARLINK-2516","OBJECT_ID":"2021-036H","EPOCH":"2025-12-03T04:42:54.079200","MEAN_MOTION":15.0639789,"ECCENTRICITY":0.00012624,"INCLINATION":53.0526,"RA_OF_ASC_NODE":154.7916,"ARG_OF_PERICENTER":93.1992,"MEAN_ANOMALY":266.9142,"EPHEMERIS_TYPE":0,"CLASSIFICATION_TYPE":"U","NORAD_CAT_ID":48283,"ELEMENT_SET_NO":999,"REV_AT_EPOCH":25377,"BSTAR":0.00025288639,"MEAN_MOTION_DOT":3.487e-5,"MEAN_MOTION_DDOT":0},{"OBJECT_NAME":"STARLINK-2564","OBJECT_ID":"2021-036J","EPOCH":"2025-12-02T17:28:49.412352","MEAN_MOTION":15.06391337,"ECCENTRICITY":0.00015061,"INCLINATION":53.0545,"RA_OF_ASC_NODE":156.8938,"ARG_OF_PERICENTER":87.5563,"MEAN_ANOMALY":272.5599,"EPHEMERIS_TYPE":0,"CLASSIFICATION_TYPE":"U","NORAD_CAT_ID":48284,"ELEMENT_SET_NO":999,"REV_AT_EPOCH":25369,"BSTAR":8.6152893e-5,"MEAN_MOTION_DOT":1.002e-5,"MEAN_MOTION_DDOT":0},{"OBJECT_NAME":"STARLINK-2547","OBJECT_ID":"2021-036L","EPOCH":"2025-12-03T05:04:08.264928","MEAN_MOTION":15.06421018,"ECCENTRICITY":0.00018305,"INCLINATION":53.0539,"RA_OF_ASC_NODE":154.9947,"ARG_OF_PERICENTER":80.4999,"MEAN_ANOMALY":279.6196,"EPHEMERIS_TYPE":0,"CLASSIFICATION_TYPE":"U","NORAD_CAT_ID":48286,"ELEMENT_SET_NO":999,"REV_AT_EPOCH":25376,"BSTAR":9.0381462e-5,"MEAN_MOTION_DOT":1.066e-5,"MEAN_MOTION_DDOT":0},{"OBJECT_NAME":"STARLINK-2566","OBJECT_ID":"2021-036M","EPOCH":"2025-12-02T17:12:53.737632","MEAN_MOTION":15.06399632,"ECCENTRICITY":0.00014621,"INCLINATION":53.053,"RA_OF_ASC_NODE":156.9464,"ARG_OF_PERICENTER":87.3945,"MEAN_ANOMALY":272.7212,"EPHEMERIS_TYPE":0,"CLASSIFICATION_TYPE":"U","NORAD_CAT_ID":48287,"ELEMENT_SET_NO":999,"REV_AT_EPOCH":25369,"BSTAR":9.1442887e-5,"MEAN_MOTION_DOT":1.081e-5,"MEAN_MOTION_DDOT":0},{"OBJECT_NAME":"STARLINK-2545","OBJECT_ID":"2021-036P","EPOCH":"2025-12-02T18:37:49.276128","MEAN_MOTION":15.0639962,"ECCENTRICITY":0.00014184,"INCLINATION":53.0516,"RA_OF_ASC_NODE":156.684,"ARG_OF_PERICENTER":90.9138,"MEAN_ANOMALY":269.2013,"EPHEMERIS_TYPE":0,"CLASSIFICATION_TYPE":"U","NORAD_CAT_ID":48289,"ELEMENT_SET_NO":999,"REV_AT_EPOCH":25370,"BSTAR":5.03753e-5,"MEAN_MOTION_DOT":4.69e-6,"MEAN_MOTION_DDOT":0},{"OBJECT_NAME":"STARLINK-2540","OBJECT_ID":"2021-036Q","EPOCH":"2025-12-03T08:00:01.999872","MEAN_MOTION":15.73743428,"ECCENTRICITY":0.00010743,"INCLINATION":53.0521,"RA_OF_ASC_NODE":143.9511,"ARG_OF_PERICENTER":335.2684,"MEAN_ANOMALY":343.3316,"EPHEMERIS_TYPE":0,"CLASSIFICATION_TYPE":"U","NORAD_CAT_ID":48290,"ELEMENT_SET_NO":999,"REV_AT_EPOCH":585,"BSTAR":0.0024026962,"MEAN_MOTION_DOT":0.00359784,"MEAN_MOTION_DDOT":0},{"OBJECT_NAME":"STARLINK-2555","OBJECT_ID":"2021-036R","EPOCH":"2025-12-02T18:27:12.365568","MEAN_MOTION":15.06395411,"ECCENTRICITY":0.00013814,"INCLINATION":53.0534,"RA_OF_ASC_NODE":156.7159,"ARG_OF_PERICENTER":89.4847,"MEAN_ANOMALY":270.63,"EPHEMERIS_TYPE":0,"CLASSIFICATION_TYPE":"U","NORAD_CAT_ID":48291,"ELEMENT_SET_NO":999,"REV_AT_EPOCH":25370,"BSTAR":0.00010454626,"MEAN_MOTION_DOT":1.276e-5,"MEAN_MOTION_DDOT":0},{"OBJECT_NAME":"STARLINK-2542","OBJECT_ID":"2021-036S","EPOCH":"2025-12-02T18:43:09.271488","MEAN_MOTION":15.06400334,"ECCENTRICITY":0.00013354,"INCLINATION":53.0535,"RA_OF_ASC_NODE":156.828,"ARG_OF_PERICENTER":92.0035,"MEAN_ANOMALY":268.1107,"EPHEMERIS_TYPE":0,"CLASSIFICATION_TYPE":"U","NORAD_CAT_ID":48292,"ELEMENT_SET_NO":999,"REV_AT_EPOCH":25370,"BSTAR":6.4267936e-5,"MEAN_MOTION_DOT":6.76e-6,"MEAN_MOTION_DDOT":0},{"OBJECT_NAME":"STARLINK-2550","OBJECT_ID":"2021-036T","EPOCH":"2025-12-03T05:25:21.861408","MEAN_MOTION":15.06403453,"ECCENTRICITY":0.00013499,"INCLINATION":53.0529,"RA_OF_ASC_NODE":154.6596,"ARG_OF_PERICENTER":85.564,"MEAN_ANOMALY":274.5503,"EPHEMERIS_TYPE":0,"CLASSIFICATION_TYPE":"U","NORAD_CAT_ID":48293,"ELEMENT_SET_NO":999,"REV_AT_EPOCH":25377,"BSTAR":0.00023498578,"MEAN_MOTION_DOT":3.221e-5,"MEAN_MOTION_DDOT":0},{"OBJECT_NAME":"STARLINK-2533","OBJECT_ID":"2021-036U","EPOCH":"2025-12-03T05:20:05.214048","MEAN_MOTION":15.0638534,"ECCENTRICITY":0.00011478,"INCLINATION":53.0548,"RA_OF_ASC_NODE":154.6812,"ARG_OF_PERICENTER":94.0816,"MEAN_ANOMALY":266.0305,"EPHEMERIS_TYPE":0,"CLASSIFICATION_TYPE":"U","NORAD_CAT_ID":48294,"ELEMENT_SET_NO":999,"REV_AT_EPOCH":25377,"BSTAR":-7.5166411e-5,"MEAN_MOTION_DOT":-1.4e-5,"MEAN_MOTION_DDOT":0},{"OBJECT_NAME":"STARLINK-2535","OBJECT_ID":"2021-036V","EPOCH":"2025-12-02T19:41:29.865984","MEAN_MOTION":15.06438078,"ECCENTRICITY":0.00013158,"INCLINATION":53.0536,"RA_OF_ASC_NODE":156.4813,"ARG_OF_PERICENTER":92.0142,"MEAN_ANOMALY":268.0998,"EPHEMERIS_TYPE":0,"CLASSIFICATION_TYPE":"U","NORAD_CAT_ID":48295,"ELEMENT_SET_NO":999,"REV_AT_EPOCH":25371,"BSTAR":0.00064561866,"MEAN_MOTION_DOT":9.358e-5,"MEAN_MOTION_DDOT":0},{"OBJECT_NAME":"STARLINK-2559","OBJECT_ID":"2021-036Y","EPOCH":"2025-12-03T04:58:49.759104","MEAN_MOTION":15.06397824,"ECCENTRICITY":0.00016322,"INCLINATION":53.0551,"RA_OF_ASC_NODE":154.7428,"ARG_OF_PERICENTER":95.9111,"MEAN_ANOMALY":264.2064,"EPHEMERIS_TYPE":0,"CLASSIFICATION_TYPE":"U","NORAD_CAT_ID":48298,"ELEMENT_SET_NO":999,"REV_AT_EPOCH":25377,"BSTAR":6.5245138e-5,"MEAN_MOTION_DOT":6.9e-6,"MEAN_MOTION_DDOT":0}]
