STARLINK-2569           
1 48277U 21036B   25337.33927622  .00000782  00000+0  71372-4 0  9994
2 48277  53.0568  84.1526 0001331  81.2043 278.9096 15.06407727254774
STARLINK-2543           
1 48278U 21036C   25337.31026466  .00002082  00000+0  15858-3 0  9990
2 48278  53.0537  99.3658 0001279  90.7928 269.3208 15.06404404254557
STARLINK-2565           
1 48280U 21036E   25337.23007747  .00003795  00000+0  27342-3 0  9998
2 48280  53.0527 169.6399 0001710  87.3134 272.8050 15.06418651253566
STARLINK-2558           
1 48282U 21036G   25337.20015039  .00000682  00000+0  64649-4 0  9994
2 48282  53.0540 154.7777 0001893  98.9454 261.1749 15.06407130253772
STARLINK-2516           
1 48283U 21036H   25337.19645925  .00003487  00000+0  25289-3 0  9998
2 48283  53.0526 154.7916 0001262  93.1992 266.9142 15.06397890253777
STARLINK-2564           
1 48284U 21036J   25336.72834968  .00001002  00000+0  86153-4 0  9993
2 48284  53.0545 156.8938 0001506  87.5563 272.5599 15.06391337253698
STARLINK-2547           
1 48286U 21036L   25337.21120677  .00001066  00000+0  90381-4 0  9993
2 48286  53.0539 154.9947 0001830  80.4999 279.6196 15.06421018253766
STARLINK-2566           
1 48287U 21036M   25336.71728863  .00001081  00000+0  91443-4 0  9996
2 48287  53.0530 156.9464 0001462  87.3945 272.7212 15.06399632253693
STARLINK-2545           
1 48289U 21036P   25336.77626477  .00000469  00000+0  50375-4 0  9990
2 48289  53.0516 156.6840 0001418  90.9138 269.2013 15.06399620253708
STARLINK-2540           
1 48290U 21036Q   25337.33335648  .00359784  00000+0  24027-2 0  9992
2 48290  53.0521 143.9511 0001074 335.2684 343.3316 15.73743428  5853
STARLINK-2555           
1 48291U 21036R   25336.76889312  .00001276  00000+0  10455-3 0  9992
2 48291  53.0534 156.7159 0001381  89.4847 270.6300 15.06395411253703
STARLINK-2542           
1 48292U 21036S   25336.77996842  .00000676  00000+0  64268-4 0  9996
2 48292  53.0535 156.8280 0001335  92.0035 268.1107 15.06400334253707
STARLINK-2550           
1 48293U 21036T   25337.22594747  .00003221  00000+0  23499-3 0  9995
2 48293  53.0529 154.6596 0001349  85.5640 274.5503 15.06403453253774
STARLINK-2533           
1 48294U 21036U   25337.22228257 -.00001400  00000+0 -75166-4 0  9994
2 48294  53.0548 154.6812 0001147  94.0816 266.0305 15.06385340253773
STARLINK-2535           
1 48295U 21036V   25336.82048456  .00009358  00000+0  64562-3 0  9996
2 48295  53.0536 156.4813 0001315  92.0142 268.0998 15.06438078253710
STARLINK-2559           
1 48298U 21036Y   25337.20752036  .00000690  00000+0  65245-4 0  9998
2 48298  53.0551 154.7428 0001632  95.9111 264.2064 15.06397824253774
